NORAD_CAT_ID,OBJECT_NAME,OBJECT_TYPE,EPOCH,MEAN_MOTION,ECCENTRICITY,INCLINATION,RA_OF_ASC_NODE,ARG_OF_PERICENTER,MEAN_ANOMALY,BSTAR,MEAN_MOTION_DOT,MEAN_MOTION_DDOT,TLE_LINE0,TLE_LINE1,TLE_LINE2,SEMIMAJOR_AXIS,PERIOD,APOGEE,PERIGEE,DECAYED
52598.0,STARLINK-4019,PAYLOAD,2024-05-12 10:49:58,15.08678214,0.0001174,53.2184,34.9816,105.716,254.3962,-0.00059906,-9.767e-05,0.0,0 STARLINK-4019,1 52598U 22052A   24133.45137659 -.00009767  00000-0 -59906-3 0  9996,2 52598  53.2184  34.9816 0001174 105.7160 254.3962 15.08678214110575,6918.375,95.448,541.052,539.428,0.0
52598.0,STARLINK-4019,PAYLOAD,2024-05-12 17:11:32,15.08746525,7.41e-05,53.2184,33.7935,66.0478,294.0592,0.0037923,0.00060429,0.0,0 STARLINK-4019,1 52598U 22052A   24133.71635242  .00060429  00000-0  37923-2 0  9990,2 52598  53.2184  33.7935 0000741  66.0478 294.0592 15.08746525110610,6918.166,95.443,540.544,539.518,0.0
52598.0,STARLINK-4019,PAYLOAD,2024-05-12 21:57:42,15.08793284,0.0001607,53.218,32.9029,78.0418,282.0755,0.0045551,0.00072863,0.0,0 STARLINK-4019,1 52598U 22052A   24133.91507879  .00072863  00000-0  45551-2 0  9997,2 52598  53.2180  32.9029 0001607  78.0418 282.0755 15.08793284111073,6918.023,95.441,541.0,538.776,0.0
52598.0,STARLINK-4019,PAYLOAD,2024-05-13 02:43:52,15.0883709,0.0001202,53.2178,32.0103,80.3612,279.7516,0.0031673,0.00050477,0.0,0 STARLINK-4019,1 52598U 22052A   24134.11379678  .00050477  00000-0  31673-2 0  9991,2 52598  53.2178  32.0103 0001202  80.3612 279.7516 15.08837090110674,6917.889,95.438,540.586,538.923,0.0
52598.0,STARLINK-4019,PAYLOAD,2024-05-13 10:40:47,15.08849832,0.0001414,53.2169,30.5214,89.5994,270.516,0.0031307,0.00049904,0.0,0 STARLINK-4019,1 52598U 22052A   24134.44499781  .00049904  00000-0  31307-2 0  9992,2 52598  53.2169  30.5214 0001414  89.5994 270.5160 15.08849832111154,6917.85,95.437,540.694,538.737,0.0
52598.0,STARLINK-4019,PAYLOAD,2024-05-14 02:34:37,15.0889009,0.0001364,53.2169,27.548,87.8867,272.2281,0.0020603,0.00032699,0.0,0 STARLINK-4019,1 52598U 22052A   24135.10738383  .00032699  00000-0  20603-2 0  9990,2 52598  53.2169  27.5480 0001364  87.8867 272.2281 15.08890090110827,6917.727,95.434,540.536,538.649,0.0
52598.0,STARLINK-4019,PAYLOAD,2024-05-14 23:14:36,15.0890449,0.0001249,53.2169,23.6817,97.8439,262.2695,0.001986,0.00031517,0.0,0 STARLINK-4019,1 52598U 22052A   24135.96847991  .00031517  00000-0  19860-2 0  9991,2 52598  53.2169  23.6817 0001249  97.8439 262.2695 15.08904490111386,6917.683,95.433,540.412,538.684,0.0
52598.0,STARLINK-4019,PAYLOAD,2024-05-15 02:25:22,15.08900165,0.0001186,53.2185,23.0851,91.4784,268.6344,0.0014203,0.00022426,0.0,0 STARLINK-4019,1 52598U 22052A   24136.10095492  .00022426  00000-0  14203-2 0  9994,2 52598  53.2185  23.0851 0001186  91.4784 268.6344 15.08900165110979,6917.696,95.434,540.382,538.741,0.0
52598.0,STARLINK-4019,PAYLOAD,2024-05-15 21:29:59,15.08861744,0.0001193,53.2177,19.5172,111.2008,248.9112,-0.00013876,-2.497e-05,0.0,0 STARLINK-4019,1 52598U 22052A   24136.89582738 -.00002497  00000-0 -13876-3 0  9998,2 52598  53.2177  19.5172 0001193 111.2008 248.9112 15.08861744111091,6917.814,95.436,540.504,538.854,0.0
52598.0,STARLINK-4019,PAYLOAD,2024-05-15 23:05:22,15.0885481,0.0001024,53.2169,19.2203,69.0997,291.0105,-0.00025358,-4.323e-05,0.0,0 STARLINK-4019,1 52598U 22052A   24136.96207027 -.00004323  00000-0 -25358-3 0  9999,2 52598  53.2169  19.2203 0001024  69.0997 291.0105 15.08854810111530,6917.835,95.437,540.409,538.992,0.0
52598.0,STARLINK-4019,PAYLOAD,2024-05-16 22:56:09,15.08847986,0.0001022,53.2168,14.7606,67.8062,292.3038,-0.00010377,-1.939e-05,0.0,0 STARLINK-4019,1 52598U 22052A   24137.95566691 -.00001939  00000-0 -10377-3 0  9999,2 52598  53.2168  14.7606 0001022  67.8062 292.3038 15.08847986111684,6917.856,95.437,540.428,539.014,0.0
52598.0,STARLINK-4019,PAYLOAD,2024-05-17 08:28:27,15.08874174,5.43e-05,53.2181,12.9754,50.1698,309.9342,0.00047073,7.219e-05,0.0,0 STARLINK-4019,1 52598U 22052A   24138.35309079  .00007219  00000-0  47073-3 0  9997,2 52598  53.2181  12.9754 0000543  50.1698 309.9342 15.08874174111312,6917.776,95.435,540.017,539.265,0.0
52598.0,STARLINK-4019,PAYLOAD,2024-05-17 22:46:57,15.08814748,0.0001993,53.218,10.2994,82.7239,277.398,-0.00033574,-5.624e-05,0.0,0 STARLINK-4019,1 52598U 22052A   24138.94928154 -.00005624  00000-0 -33574-3 0  9994,2 52598  53.2180  10.2994 0001993  82.7239 277.3980 15.08814748111834,6917.958,95.439,541.201,538.444,0.0
52598.0,STARLINK-4019,PAYLOAD,2024-05-18 08:19:16,15.08843947,0.0001069,53.2168,8.5161,77.2682,282.843,0.00024981,3.691e-05,0.0,0 STARLINK-4019,1 52598U 22052A   24139.34671470  .00003691  00000-0  24981-3 0  9997,2 52598  53.2168   8.5161 0001069  77.2682 282.8430 15.08843947111464,6917.868,95.437,540.473,538.994,0.0
52598.0,STARLINK-4019,PAYLOAD,2024-05-18 14:40:49,15.0882992,0.0001733,53.2192,7.3246,87.232,272.8871,6.1495e-05,6.91e-06,0.0,0 STARLINK-4019,1 52598U 22052A   24139.61168498  .00000691  00000-0  61495-4 0  9997,2 52598  53.2192   7.3246 0001733  87.2320 272.8871 15.08829920111935,6917.911,95.438,540.975,538.577,0.0
52598.0,STARLINK-4019,PAYLOAD,2024-05-18 22:37:43,15.08859396,0.00011,53.2177,5.837,84.0363,276.0754,0.00066542,0.00010324,0.0,0 STARLINK-4019,1 52598U 22052A   24139.94287002  .00010324  00000-0  66542-3 0  9997,2 52598  53.2177   5.8370 0001100  84.0363 276.0754 15.08859396111980,6917.821,95.436,540.447,538.925,0.0
52598.0,STARLINK-4019,PAYLOAD,2024-05-19 14:31:35,15.08850196,0.0001482,53.2161,2.8673,83.7275,276.3886,0.00044925,6.871e-05,0.0,0 STARLINK-4019,1 52598U 22052A   24140.60527358  .00006871  00000-0  44925-3 0  9996,2 52598  53.2161   2.8673 0001482  83.7275 276.3886 15.08850196112087,6917.849,95.437,540.739,538.689,0.0
52598.0,STARLINK-4019,PAYLOAD,2024-05-19 20:53:08,15.08823362,0.0001321,53.2169,1.6773,68.6671,291.4462,-0.00043991,-7.279e-05,0.0,0 STARLINK-4019,1 52598U 22052A   24140.87024053 -.00007279  00000-0 -43991-3 0  9996,2 52598  53.2169   1.6773 0001321  68.6671 291.4462 15.08823362111696,6917.931,95.439,540.71,538.882,0.0
52598.0,STARLINK-4019,PAYLOAD,2024-05-20 00:03:55,15.08827939,0.0001175,53.2172,1.0818,69.1393,290.9724,-0.00027806,-4.709e-05,0.0,0 STARLINK-4019,1 52598U 22052A   24141.00272022 -.00004709  00000-0 -27806-3 0  9995,2 52598  53.2172   1.0818 0001175  69.1393 290.9724 15.08827939112148,6917.917,95.438,540.595,538.969,0.0
52598.0,STARLINK-4019,PAYLOAD,2024-05-20 20:43:56,15.0884091,0.0001409,53.2174,357.2148,63.4013,296.7123,0.00029361,4.388e-05,0.0,0 STARLINK-4019,1 52598U 22052A   24141.86384351  .00004388  00000-0  29361-3 0  9997,2 52598  53.2174 357.2148 0001409  63.4013 296.7123 15.08840910111845,6917.878,95.437,540.717,538.768,0.0
52598.0,STARLINK-4019,PAYLOAD,2024-05-20 23:54:42,15.08842858,0.0001304,53.217,356.6196,66.0819,294.031,0.00079523,0.00012392,0.0,0 STARLINK-4019,1 52598U 22052A   24141.99632525  .00012392  00000-0  79523-3 0  9999,2 52598  53.2170 356.6196 0001304  66.0819 294.0310 15.08842858112296,6917.872,95.437,540.639,538.835,0.0
52598.0,STARLINK-4019,PAYLOAD,2024-05-21 20:34:42,15.08845946,0.0001422,53.2174,352.7506,118.1798,241.9338,0.00042632,6.505e-05,0.0,0 STARLINK-4019,1 52598U 22052A   24142.85744209  .00006505  00000-0  42632-3 0  9998,2 52598  53.2174 352.7506 0001422 118.1798 241.9338 15.08845946112425,6917.862,95.437,540.711,538.743,0.0
52598.0,STARLINK-4019,PAYLOAD,2024-05-21 23:45:29,15.0884602,0.0001464,53.2177,352.1581,117.2262,242.8879,0.00034966,5.282e-05,0.0,0 STARLINK-4019,1 52598U 22052A   24142.98992179  .00005282  00000-0  34966-3 0  9995,2 52598  53.2177 352.1581 0001464 117.2262 242.8879 15.08846020112016,6917.862,95.437,540.74,538.714,0.0
52598.0,STARLINK-4019,PAYLOAD,2024-05-22 20:25:30,15.08839868,0.0001238,53.2175,348.2916,102.0128,258.1003,1.9589e-05,2.4e-07,0.0,0 STARLINK-4019,1 52598U 22052A   24143.85104325  .00000024  00000-0  19589-4 0  9994,2 52598  53.2175 348.2916 0001238 102.0128 258.1003 15.08839868112149,6917.881,95.438,540.602,538.889,0.0
52598.0,STARLINK-4019,PAYLOAD,2024-05-23 20:16:17,15.08838776,0.0001244,53.2176,343.8312,95.2778,264.8356,6.3628e-05,7.25e-06,0.0,0 STARLINK-4019,1 52598U 22052A   24144.84464536  .00000725  00000-0  63628-4 0  9998,2 52598  53.2176 343.8312 0001244  95.2778 264.8356 15.08838776112728,6917.884,95.438,540.61,538.889,0.0
52598.0,STARLINK-4019,PAYLOAD,2024-05-24 13:45:31,15.08838444,0.0001266,53.218,340.5608,83.3377,276.7759,0.00012594,1.717e-05,0.0,0 STARLINK-4019,1 52598U 22052A   24145.57328644  .00001717  00000-0  12594-3 0  9995,2 52598  53.2180 340.5608 0001266  83.3377 276.7759 15.08838444112835,6917.885,95.438,540.626,538.874,0.0
52598.0,STARLINK-4019,PAYLOAD,2024-05-24 21:42:27,15.08847765,0.0001041,53.2168,339.0788,109.3271,250.7833,0.0002406,3.544e-05,0.0,0 STARLINK-4019,1 52598U 22052A   24145.90448173  .00003544  00000-0  24060-3 0  9993,2 52598  53.2168 339.0788 0001041 109.3271 250.7833 15.08847765112455,6917.857,95.437,540.442,539.002,0.0
52598.0,STARLINK-4019,PAYLOAD,2024-05-25 12:00:56,15.08838108,0.0001306,53.2165,336.4038,111.6138,248.4993,-2.086e-05,-6.2e-06,0.0,0 STARLINK-4019,1 52598U 22052A   24146.50064824 -.00000620  00000-0 -20860-4 0  9996,2 52598  53.2165 336.4038 0001306 111.6138 248.4993 15.08838108112545,6917.886,95.438,540.655,538.848,0.0
52598.0,STARLINK-4019,PAYLOAD,2024-05-25 19:57:52,15.08829877,0.0001044,53.2171,334.9245,115.8372,244.2728,2.6255e-05,1.3e-06,0.0,0 STARLINK-4019,1 52598U 22052A   24146.83185882  .00000130  00000-0  26255-4 0  9998,2 52598  53.2171 334.9245 0001044 115.8372 244.2728 15.08829877112598,6917.911,95.438,540.499,539.054,0.0
52598.0,STARLINK-4019,PAYLOAD,2024-05-26 11:51:43,15.0883559,0.000118,53.217,331.9423,92.7025,267.4102,0.00012395,1.685e-05,0.0,0 STARLINK-4019,1 52598U 22052A   24147.49425344  .00001685  00000-0  12395-3 0  9996,2 52598  53.2170 331.9423 0001180  92.7025 267.4102 15.08835590112694,6917.894,95.438,540.575,538.943,0.0
